<!DOCTYPE html PUBLIC "-//W3C//DTD XHTML 1.0 Strict//EN" "http://www.w3.org/TR/xhtml1/DTD/xhtml1-strict.dtd">
<html xmlns="http://www.w3.org/1999/xhtml">
<head>
<meta http-equiv="Content-Type" content="text/html; charset=iso-8859-1"/>
<title>404 - File Not Found.</title>
<style type="text/css">
<!--
body{margin:0;font-size:.7em;font-family:Verdana, Arial, Helvetica, sans-serif;background:#EEEEEE;}
fieldset{padding:0 15px 10px 15px;}
h1{font-size:2.4em;margin:0;color:#FFF;}
h2{font-size:1.7em;margin:0;color:#CC0000;}
h3{font-size:1.2em;margin:10px 0 0 0;color:#000000;}
#header{width:96%;margin:0 0 0 0;padding:6px 2% 6px 2%;font-family:"trebuchet MS", Verdana, sans-serif;color:#FFF;
background-color:#555555;}
#content{margin:0 0 0 2%;position:relative;}
.content-container{background:#FFF;width:96%;margin-top:8px;padding:10px;position:relative;}
-->
</style>
</head>
<body>
<div id="header"><h1>Server Error</h1></div>
<div id="content">
 <div class="content-container"><fieldset>
  <h2>404 - File Not Found.</h2>
  <h3>File not found for celestrak.org/NORAD/elements/active.txt.</h3>
  <h3>Please contact <a href="mailto:ts.kelso@celestrak.org">ts.kelso@celestrak.org</a> if you have other questions.</h3>
 </fieldset></div>
</div>
</body>
</html>
LANDSAT 9               
1 49260U 21088A   24028.19285349  .00000737  00000+0  17375-3 0  9999
2 49260  98.2048 100.0953 0000863  92.9405 267.1892 14.57100264124156
CSG-2                   
1 51444U 22008A   24028.13184111  .00000653  00000+0  88543-4 0  9991
2 51444  97.8809 213.3539 0001554  83.1666 276.9724 14.82145747107561
INS-2TD                 
1 51658U 22013C   24027.80407185  .00032938  00000+0  10386-2 0  9995
2 51658  97.5345  47.3934 0005287 305.4303  54.6445 15.32800400108268
GAOFEN-12 03            
1 52912U 22069A   24028.15689472  .00002487  00000+0  32605-3 0  9995
2 52912  97.9283 280.9141 0001250  76.3952 283.7399 14.81218349 85740
SWOT                    
1 54754U 22173A   24028.17544346  .00000160  00000+0  11057-3 0  9993
2 54754  77.6110 131.0894 0000362 267.6994  92.4116 14.00170445 57257
GAOFEN-12 04            
1 57654U 23123A   24028.19643366  .00002310  00000+0  30393-3 0  9998
2 57654  97.9121 307.5012 0001607  23.3927 336.7359 14.81136780 23758
SARSAT 7 (NOAA 15)      
1 25338U 98030A   24028.18560423  .00000257  00000+0  12445-3 0  9998
2 25338  98.5849  58.1560 0010634  22.5569 337.6077 14.26481448337338
GPS BIIR-08             
1 27663U 03005A   24027.83872645  .00000032  00000+0  00000+0 0  9993
2 27663  55.1699 249.6203 0137884  46.3499 134.6120  2.00557790153824
GPS BIIR-11             
1 28190U 04009A   24028.10069425 -.00000064  00000+0  00000+0 0  9995
2 28190  55.5723 310.6686 0092889 142.8234  24.8479  2.00562924145508
GPS BIIR-13             
1 28474U 04045A   24027.54170375 -.00000097  00000+0  00000+0 0  9990
2 28474  55.4427 359.8785 0164892 287.8921 243.1746  2.00538282140941
SARSAT 10 (NOAA 18)     
1 28654U 05018A   24028.16958077  .00000310  00000+0  18959-3 0  9996
2 28654  98.8882 106.2535 0015213 103.0704 257.2167 14.13110473963349
GPS BIIR-14M            
1 28874U 05038A   24027.13121319 -.00000060  00000+0  00000+0 0  9996
2 28874  55.6216 308.1635 0138841 282.7888 289.2534  2.00565559134345
METEOSAT-9 (MSG-2)      
1 28912U 05049B   24027.70315598  .00000128  00000+0  00000+0 0  9992
2 28912   7.3608  62.0377 0000630 249.5577 113.7918  1.00277969 66318
GOES 13                 
1 29155U 06018A   24027.92661942 -.00000018  00000+0  00000+0 0  9999
2 29155   2.2560  86.9831 0088206 248.9774 214.2206  0.99152784 34637
GPS BIIR-16M            
1 29601U 06052A   24026.90514395  .00000037  00000+0  00000+0 0  9999
2 29601  55.1959 248.6262 0087187  80.4916 280.5624  2.00558243125917
GPS BIIR-17M            
1 32260U 07047A   24028.20820853 -.00000009  00000+0  00000+0 0  9993
2 32260  53.5333 116.0929 0152243  73.6069 288.0939  2.00571867119368
GPS BIIR-18M            
1 32384U 07062A   24027.78286882 -.00000061  00000+0  00000+0 0  9995
2 32384  55.7568 308.9802 0024304 148.5096  32.4716  2.00566366118034
SARSAT 12 (NOAA 19)     
1 33591U 09005A   24028.17230610  .00000277  00000+0  17327-3 0  9999
2 33591  99.0694  82.3563 0013308 333.0949  26.9530 14.12915436771717
GOES 14                 
1 35491U 09033A   24028.18013465 -.00000060  00000+0  00000+0 0  9996
2 35491   0.0641 216.8865 0000845 137.3856  88.9784  1.00273269 53429
GOES 15                 
1 36411U 10008A   24027.89077096  .00000041  00000+0  00000+0 0  9998
2 36411   0.0577 257.7654 0004912  15.9177 235.3536  1.00267227 50906
GPS BIIF-2              
1 37753U 11036A   24027.58839705 -.00000092  00000+0  00000+0 0  9996
2 37753  56.7614   5.8360 0124535  56.5362 126.8099  2.00525836 91797
GSAT0101 (GALILEO-PFM)  
1 37846U 11060A   24027.18307202 -.00000089  00000+0  00000+0 0  9990
2 37846  57.1250   5.3745 0003501 338.2459  21.7282  1.70476016 76251
GSAT0102 (GALILEO-FM2)  
1 37847U 11060B   24027.99371396 -.00000087  00000+0  00000+0 0  9993
2 37847  57.1256   5.3528 0005161 321.5779 221.8705  1.70475458 76398
LUCH 5A                 
1 37951U 11074B   24027.87048976 -.00000046  00000+0  00000+0 0  9991
2 37951   6.5188  87.2776 0002986 211.9783 307.6562  1.00274216 44312
METEOSAT-10 (MSG-3)     
1 38552U 12035B   24027.83733409  .00000000  00000+0  00000+0 0  9994
2 38552   2.6512  59.6642 0001191 245.5012 123.0337  1.00276547 42124
SARSAT 13 (METOP-B)     
1 38771U 12049A   24028.18627188  .00000215  00000+0  11810-3 0  9990
2 38771  98.6492  88.4418 0001692  90.7796 269.3575 14.21461297589517
GPS BIIF-3              
1 38833U 12053A   24027.30042481  .00000023  00000+0  00000+0 0  9996
2 38833  53.5147 179.2662 0149018  54.7939 306.5454  2.00556381 81955
GSAT0103 (GALILEO-FM3)  
1 38857U 12055A   24025.46252329 -.00000026  00000+0  00000+0 0  9997
2 38857  55.3431 125.5573 0003814 252.5322 107.4190  1.70473638 70119
GSAT0104 (GALILEO-FM4)  
1 38858U 12055B   24027.77816002 -.00000011  00000+0  00000+0 0  9992
2 38858  55.3430 125.4950 0002139 242.0061 117.9827  1.70473656 70157
GPS BIIF-4              
1 39166U 13023A   24027.16618762 -.00000054  00000+0  00000+0 0  9994
2 39166  55.2347 304.3005 0121170  42.3985 318.5744  2.00563548 78393
INSAT-3D                
1 39216U 13038B   24028.06846649 -.00000150  00000+0  00000+0 0  9990
2 39216   0.1134 273.0636 0003034  16.4633 304.0037  1.00272385 38569
GPS BIIF-5              
1 39533U 14008A   24027.16912937  .00000026  00000+0  00000+0 0  9995
2 39533  53.5995 184.8497 0068695 215.9762 143.5201  2.00560009 72195
LUCH 5V                 
1 39727U 14023A   24027.85613100 -.00000265  00000+0  00000+0 0  9999
2 39727   2.9447  76.8028 0003621 237.0650 215.6864  1.00272648 35620
GPS BIIF-6              
1 39741U 14026A   24027.45014063 -.00000093  00000+0  00000+0 0  9996
2 39741  56.7108   5.3609 0033003 311.6675  48.0469  2.00578473 71054
GPS BIIF-7              
1 40105U 14045A   24027.53674372 -.00000008  00000+0  00000+0 0  9993
2 40105  54.8695 123.2696 0026327 117.4705 242.8149  2.00556350 68597
GSAT0201 (GALILEO 5)    
1 40128U 14050A   24027.87132130 -.00000080  00000+0  00000+0 0  9992
2 40128  49.7977 308.7398 1605676 145.8274 225.6590  1.85519743 64091
GSAT0202 (GALILEO 6)    
1 40129U 14050B   24025.43521050 -.00000081  00000+0  00000+0 0  9997
2 40129  49.8178 307.9118 1604010 146.5370 224.7393  1.85520484 64245
GPS BIIF-8              
1 40294U 14068A   24027.40359515 -.00000039  00000+0  00000+0 0  9996
2 40294  56.3001  64.7769 0048489  60.1245 300.4278  2.00550612 67723
GLONASS-K 2             
1 40315U 14075A   24027.88622582  .00000061  00000+0  00000+0 0  9991
2 40315  63.6290 220.5901 0018066 203.3390 156.6036  2.13101416 71285
GPS BIIF-9              
1 40534U 15013A   24027.04867661  .00000039  00000+0  00000+0 0  9999
2 40534  53.3990 240.2898 0086689  28.6667 331.8641  2.00574386 64339
GSAT0203 (GALILEO 7)    
1 40544U 15017A   24026.96227327 -.00000090  00000+0  00000+0 0  9991
2 40544  56.9203   5.3339 0005305 276.8832  83.0456  1.70475925 54337
GSAT0204 (GALILEO 8)    
1 40545U 15017B   24026.62970264 -.00000091  00000+0  00000+0 0  9991
2 40545  56.9265   5.3578 0004718 268.2123  91.7228  1.70475641 17377
GPS BIIF-10             
1 40730U 15033A   24027.21003583 -.00000053  00000+0  00000+0 0  9990
2 40730  54.7204 302.8423 0091861  16.3096 344.0307  2.00574538 62508
METEOSAT-11 (MSG-4)     
1 40732U 15034A   24027.83907455  .00000066  00000+0  00000+0 0  9995
2 40732   1.0505  64.1915 0002491 202.2934 171.3918  1.00269647 31282
GSAT0205 (GALILEO 9)    
1 40889U 15045A   24023.46549100  .00000058  00000+0  00000+0 0  9995
2 40889  55.2876 245.7967 0006570  40.2351 319.8956  1.70473199 52084
GSAT0206 (GALILEO 10)   
1 40890U 15045B   24027.20561202  .00000051  00000+0  00000+0 0  9993
2 40890  55.2850 245.6886 0004351  37.0040 323.0950  1.70473405 52172
GPS BIIF-11             
1 41019U 15062A   24026.76358016 -.00000039  00000+0  00000+0 0  9990
2 41019  56.2818  64.6541 0094527 224.2953 135.0129  2.00562412 60332
ELEKTRO-L 2             
1 41105U 15074A   24027.83437531 -.00000113  00000+0  00000+0 0  9991
2 41105   4.4801  81.1755 0003451 200.0641 131.2494  1.00271532 29762
GSAT0209 (GALILEO 12)   
1 41174U 15079A   24027.37589166 -.00000014  00000+0  00000+0 0  9993
2 41174  55.3618 125.2128 0002592 308.9929  50.9923  1.70474976 49912
GSAT0208 (GALILEO 11)   
1 41175U 15079B   24024.07605322 -.00000034  00000+0  00000+0 0  9993
2 41175  55.3592 125.3014 0002492 297.1637  62.7952  1.70474717 50270
GPS BIIF-12             
1 41328U 16007A   24027.84445752 -.00000005  00000+0  00000+0 0  9990
2 41328  55.0695 124.0682 0076497 235.5754 123.7181  2.00568807 58368
